[{"OBJECT_NAME":"STARLINK-33689","OBJECT_ID":"2025-057R","EPOCH":"2026-03-08T22:06:22.362624","MEAN_MOTION":15.27571256,"ECCENTRICITY":0.00015134,"INCLINATION":42.9984,"RA_OF_ASC_NODE":34.861,"ARG_OF_PERICENTER":264.9335,"MEAN_ANOMALY":95.1344,"EPHEMERIS_TYPE":0,"CLASSIFICATION_TYPE":"U","NORAD_CAT_ID":63322,"ELEMENT_SET_NO":999,"REV_AT_EPOCH":5566,"BSTAR":0.0018043075,"MEAN_MOTION_DOT":0.00049711,"MEAN_MOTION_DDOT":0},{"OBJECT_NAME":"TITAN 3C TRANSTAGE DEB","OBJECT_ID":"1965-082PT","EPOCH":"2026-03-09T13:23:41.116128","MEAN_MOTION":15.28908269,"ECCENTRICITY":0.00104371,"INCLINATION":32.0266,"RA_OF_ASC_NODE":255.1391,"ARG_OF_PERICENTER":172.8339,"MEAN_ANOMALY":187.2474,"EPHEMERIS_TYPE":0,"CLASSIFICATION_TYPE":"U","NORAD_CAT_ID":3462,"ELEMENT_SET_NO":999,"REV_AT_EPOCH":24824,"BSTAR":0.0004444037,"MEAN_MOTION_DOT":0.00012939,"MEAN_MOTION_DDOT":0}]
